ONEWEB-0620             
1 55161U 23004X   25045.90702761 -.00000349  00000+0 -10220-2 0  9999
2 55161  87.8874 118.2349 0001887  88.4152 271.7192 13.11413747101960
ONEWEB-0621             
1 55162U 23004Y   25045.93416003 -.00000226  00000+0 -67229-3 0  9990
2 55162  87.8869 118.1908 0001680 107.6869 252.4443 13.11418242101943
ONEWEB-0622             
1 55163U 23004Z   25045.93925374  .00000204  00000+0  54022-3 0  9998
2 55163  87.8873 118.2104 0001410  80.8684 279.2604 13.11418509101937
ONEWEB-0623             
1 55164U 23004AA  25045.88763324 -.00000101  00000+0 -29378-3 0  9992
2 55164  87.9052 102.9795 0001199  87.8243 272.3026 13.17647779103412
ONEWEB-0624             
1 55165U 23004AB  25045.81060197  .00000153  00000+0  39041-3 0  9997
2 55165  87.8827  87.6900 0001729  95.0973 265.0353 13.12442017104123
ONEWEB-0625             
1 55166U 23004AC  25045.87749547  .00000023  00000+0  25408-4 0  9996
2 55166  87.9050 102.9799 0002037 104.3541 255.7816 13.17650546103401
ONEWEB-0626             
1 55167U 23004AD  25045.86737493  .00000042  00000+0  74872-4 0  9993
2 55167  87.9051 102.9807 0002497  92.0435 268.0982 13.17647451103400
ONEWEB-0627             
1 55168U 23004AE  25045.85557234  .00000087  00000+0  19044-3 0  9994
2 55168  87.9053 102.9853 0001419  86.6220 273.5074 13.17650084103407
